ONEWEB-0692             
1 61600U 24188G   26065.36817673  .00000325  00000+0  87996-3 0  9997
2 61600  87.8852  41.5322 0002726  89.7700 270.3740 13.11417557 70991
ONEWEB-0693             
1 61601U 24188H   26065.83337912  .00000019  00000+0  16727-4 0  9998
2 61601  87.9134  26.2309 0001310 106.2667 253.8608 13.17651006 72408
ONEWEB-0695             
1 61602U 24188J   26065.34443288 -.00000524  00000+0 -15155-2 0  9994
2 61602  87.8856  41.5276 0002355  80.1821 279.9572 13.11417546 70987
ONEWEB-0697             
1 61603U 24188K   26065.37665882  .00000551  00000+0  15181-2 0  9991
2 61603  87.8856  41.5107 0002618  90.0621 270.0807 13.11416342 70976
ONEWEB-0698             
1 61604U 24188L   26065.35460573 -.00000280  00000+0 -82627-3 0  9991
2 61604  87.8853  41.5308 0002550 109.0079 251.1326 13.11417568 70999
ONEWEB-0699             
1 61605U 24188M   26065.43832757  .00000220  00000+0  59422-3 0  9997
2 61605  87.8772  56.7226 0002430  94.9342 265.2063 13.10370244 69854
ONEWEB-0700             
1 61606U 24188N   26065.43998340  .00000110  00000+0  27781-3 0  9990
2 61606  87.8784  56.6165 0002530  86.3063 273.8354 13.10369699 69844
ONEWEB-0701             
1 61607U 24188P   26065.38021297 -.00000609  00000+0 -17805-2 0  9993
2 61607  87.8773  56.7339 0002636  95.3208 264.8220 13.10371360 69845
ONEWEB-0702             
1 61608U 24188Q   26065.85815927  .00000082  00000+0  19559-3 0  9999
2 61608  87.8870  41.3177 0002859  85.8644 274.2811 13.11416078 71075
ONEWEB-0704             
1 61609U 24188R   26065.44496577 -.00000205  00000+0 -62249-3 0  9994
2 61609  87.8784  56.6970 0002839  86.9023 273.2429 13.10370847 69838
ONEWEB-0705             
1 61610U 24188S   26065.37358068 -.00000405  00000+0 -11977-2 0  9993
2 61610  87.8775  56.7246 0002611  65.3478 294.7921 13.10370386 61992
ONEWEB-0706             
1 61611U 24188T   26065.35865261  .00000335  00000+0  92381-3 0  9999
2 61611  87.8769  56.7400 0002472  84.3687 275.7723 13.10370390 69910
ONEWEB-0707             
1 61612U 24188U   26065.82343307  .00000086  00000+0  21112-3 0  9991
2 61612  87.8776  56.6344 0002464  84.0363 276.1045 13.10369473 69916
ONEWEB-0708             
1 61613U 24188V   26065.38352990 -.00000758  00000+0 -22067-2 0  9998
2 61613  87.8769  56.7503 0001924  68.6909 291.4424 13.10372680 69837
