[{"OBJECT_NAME":"ONEWEB-0692","OBJECT_ID":"2024-188G","EPOCH":"2026-03-06T08:50:10.469472","MEAN_MOTION":13.11417557,"ECCENTRICITY":0.00027269,"INCLINATION":87.8852,"RA_OF_ASC_NODE":41.5322,"ARG_OF_PERICENTER":89.77,"MEAN_ANOMALY":270.374,"EPHEMERIS_TYPE":0,"CLASSIFICATION_TYPE":"U","NORAD_CAT_ID":61600,"ELEMENT_SET_NO":999,"REV_AT_EPOCH":7099,"BSTAR":0.00087995521,"MEAN_MOTION_DOT":3.25e-6,"MEAN_MOTION_DDOT":0},{"OBJECT_NAME":"ONEWEB-0693","OBJECT_ID":"2024-188H","EPOCH":"2026-03-06T20:00:03.955968","MEAN_MOTION":13.17651006,"ECCENTRICITY":0.000131,"INCLINATION":87.9134,"RA_OF_ASC_NODE":26.2309,"ARG_OF_PERICENTER":106.2667,"MEAN_ANOMALY":253.8608,"EPHEMERIS_TYPE":0,"CLASSIFICATION_TYPE":"U","NORAD_CAT_ID":61601,"ELEMENT_SET_NO":999,"REV_AT_EPOCH":7240,"BSTAR":1.6727e-5,"MEAN_MOTION_DOT":1.9e-7,"MEAN_MOTION_DDOT":0},{"OBJECT_NAME":"ONEWEB-0695","OBJECT_ID":"2024-188J","EPOCH":"2026-03-06T08:15:59.000832","MEAN_MOTION":13.11417546,"ECCENTRICITY":0.00023552,"INCLINATION":87.8856,"RA_OF_ASC_NODE":41.5276,"ARG_OF_PERICENTER":80.1821,"MEAN_ANOMALY":279.9572,"EPHEMERIS_TYPE":0,"CLASSIFICATION_TYPE":"U","NORAD_CAT_ID":61602,"ELEMENT_SET_NO":999,"REV_AT_EPOCH":7098,"BSTAR":-0.0015155182,"MEAN_MOTION_DOT":-5.24e-6,"MEAN_MOTION_DDOT":0},{"OBJECT_NAME":"ONEWEB-0697","OBJECT_ID":"2024-188K","EPOCH":"2026-03-06T09:02:23.322048","MEAN_MOTION":13.11416342,"ECCENTRICITY":0.00026188,"INCLINATION":87.8856,"RA_OF_ASC_NODE":41.5107,"ARG_OF_PERICENTER":90.0621,"MEAN_ANOMALY":270.0807,"EPHEMERIS_TYPE":0,"CLASSIFICATION_TYPE":"U","NORAD_CAT_ID":61603,"ELEMENT_SET_NO":999,"REV_AT_EPOCH":7097,"BSTAR":0.0015180568,"MEAN_MOTION_DOT":5.51e-6,"MEAN_MOTION_DDOT":0},{"OBJECT_NAME":"ONEWEB-0698","OBJECT_ID":"2024-188L","EPOCH":"2026-03-06T08:30:37.935072","MEAN_MOTION":13.11417568,"ECCENTRICITY":0.00025502,"INCLINATION":87.8853,"RA_OF_ASC_NODE":41.5308,"ARG_OF_PERICENTER":109.0079,"MEAN_ANOMALY":251.1326,"EPHEMERIS_TYPE":0,"CLASSIFICATION_TYPE":"U","NORAD_CAT_ID":61604,"ELEMENT_SET_NO":999,"REV_AT_EPOCH":7099,"BSTAR":-0.00082626849,"MEAN_MOTION_DOT":-2.8e-6,"MEAN_MOTION_DDOT":0},{"OBJECT_NAME":"ONEWEB-0699","OBJECT_ID":"2024-188M","EPOCH":"2026-03-06T10:31:11.502048","MEAN_MOTION":13.10370244,"ECCENTRICITY":0.00024307,"INCLINATION":87.8772,"RA_OF_ASC_NODE":56.7226,"ARG_OF_PERICENTER":94.9342,"MEAN_ANOMALY":265.2063,"EPHEMERIS_TYPE":0,"CLASSIFICATION_TYPE":"U","NORAD_CAT_ID":61605,"ELEMENT_SET_NO":999,"REV_AT_EPOCH":6985,"BSTAR":0.00059422058,"MEAN_MOTION_DOT":2.2e-6,"MEAN_MOTION_DDOT":0},{"OBJECT_NAME":"ONEWEB-0700","OBJECT_ID":"2024-188N","EPOCH":"2026-03-06T10:33:34.565760","MEAN_MOTION":13.10369699,"ECCENTRICITY":0.00025305,"INCLINATION":87.8784,"RA_OF_ASC_NODE":56.6165,"ARG_OF_PERICENTER":86.3063,"MEAN_ANOMALY":273.8354,"EPHEMERIS_TYPE":0,"CLASSIFICATION_TYPE":"U","NORAD_CAT_ID":61606,"ELEMENT_SET_NO":999,"REV_AT_EPOCH":6984,"BSTAR":0.00027780893,"MEAN_MOTION_DOT":1.1e-6,"MEAN_MOTION_DDOT":0},{"OBJECT_NAME":"ONEWEB-0701","OBJECT_ID":"2024-188P","EPOCH":"2026-03-06T09:07:30.400608","MEAN_MOTION":13.1037136,"ECCENTRICITY":0.00026369,"INCLINATION":87.8773,"RA_OF_ASC_NODE":56.7339,"ARG_OF_PERICENTER":95.3208,"MEAN_ANOMALY":264.822,"EPHEMERIS_TYPE":0,"CLASSIFICATION_TYPE":"U","NORAD_CAT_ID":61607,"ELEMENT_SET_NO":999,"REV_AT_EPOCH":6984,"BSTAR":-0.0017805051,"MEAN_MOTION_DOT":-6.09e-6,"MEAN_MOTION_DDOT":0},{"OBJECT_NAME":"ONEWEB-0702","OBJECT_ID":"2024-188Q","EPOCH":"2026-03-06T20:35:44.960928","MEAN_MOTION":13.11416078,"ECCENTRICITY":0.0002859,"INCLINATION":87.887,"RA_OF_ASC_NODE":41.3177,"ARG_OF_PERICENTER":85.8644,"MEAN_ANOMALY":274.2811,"EPHEMERIS_TYPE":0,"CLASSIFICATION_TYPE":"U","NORAD_CAT_ID":61608,"ELEMENT_SET_NO":999,"REV_AT_EPOCH":7107,"BSTAR":0.00019559,"MEAN_MOTION_DOT":8.2e-7,"MEAN_MOTION_DDOT":0},{"OBJECT_NAME":"ONEWEB-0704","OBJECT_ID":"2024-188R","EPOCH":"2026-03-06T10:40:45.042528","MEAN_MOTION":13.10370847,"ECCENTRICITY":0.00028396,"INCLINATION":87.8784,"RA_OF_ASC_NODE":56.697,"ARG_OF_PERICENTER":86.9023,"MEAN_ANOMALY":273.2429,"EPHEMERIS_TYPE":0,"CLASSIFICATION_TYPE":"U","NORAD_CAT_ID":61609,"ELEMENT_SET_NO":999,"REV_AT_EPOCH":6983,"BSTAR":-0.00062249061,"MEAN_MOTION_DOT":-2.05e-6,"MEAN_MOTION_DDOT":0},{"OBJECT_NAME":"ONEWEB-0705","OBJECT_ID":"2024-188S","EPOCH":"2026-03-06T08:57:57.370752","MEAN_MOTION":13.10370386,"ECCENTRICITY":0.00026117,"INCLINATION":87.8775,"RA_OF_ASC_NODE":56.7246,"ARG_OF_PERICENTER":65.3478,"MEAN_ANOMALY":294.7921,"EPHEMERIS_TYPE":0,"CLASSIFICATION_TYPE":"U","NORAD_CAT_ID":61610,"ELEMENT_SET_NO":999,"REV_AT_EPOCH":6199,"BSTAR":-0.0011977352,"MEAN_MOTION_DOT":-4.05e-6,"MEAN_MOTION_DDOT":0},{"OBJECT_NAME":"ONEWEB-0706","OBJECT_ID":"2024-188T","EPOCH":"2026-03-06T08:36:27.585504","MEAN_MOTION":13.1037039,"ECCENTRICITY":0.00024727,"INCLINATION":87.8769,"RA_OF_ASC_NODE":56.74,"ARG_OF_PERICENTER":84.3687,"MEAN_ANOMALY":275.7723,"EPHEMERIS_TYPE":0,"CLASSIFICATION_TYPE":"U","NORAD_CAT_ID":61611,"ELEMENT_SET_NO":999,"REV_AT_EPOCH":6991,"BSTAR":0.00092380809,"MEAN_MOTION_DOT":3.35e-6,"MEAN_MOTION_DDOT":0},{"OBJECT_NAME":"ONEWEB-0707","OBJECT_ID":"2024-188U","EPOCH":"2026-03-06T19:45:44.617248","MEAN_MOTION":13.10369473,"ECCENTRICITY":0.0002464,"INCLINATION":87.8776,"RA_OF_ASC_NODE":56.6344,"ARG_OF_PERICENTER":84.0363,"MEAN_ANOMALY":276.1045,"EPHEMERIS_TYPE":0,"CLASSIFICATION_TYPE":"U","NORAD_CAT_ID":61612,"ELEMENT_SET_NO":999,"REV_AT_EPOCH":6991,"BSTAR":0.00021112,"MEAN_MOTION_DOT":8.6e-7,"MEAN_MOTION_DDOT":0},{"OBJECT_NAME":"ONEWEB-0708","OBJECT_ID":"2024-188V","EPOCH":"2026-03-06T09:12:16.983360","MEAN_MOTION":13.1037268,"ECCENTRICITY":0.0001924,"INCLINATION":87.8769,"RA_OF_ASC_NODE":56.7503,"ARG_OF_PERICENTER":68.6909,"MEAN_ANOMALY":291.4424,"EPHEMERIS_TYPE":0,"CLASSIFICATION_TYPE":"U","NORAD_CAT_ID":61613,"ELEMENT_SET_NO":999,"REV_AT_EPOCH":6983,"BSTAR":-0.0022067159,"MEAN_MOTION_DOT":-7.58e-6,"MEAN_MOTION_DDOT":0}]
